[{"OBJECT_NAME":"ONEWEB-0132","OBJECT_ID":"2020-100W","EPOCH":"2025-10-26T18:39:51.189120","MEAN_MOTION":13.12444081,"ECCENTRICITY":0.00017264,"INCLINATION":87.897,"RA_OF_ASC_NODE":37.0459,"ARG_OF_PERICENTER":102.8625,"MEAN_ANOMALY":257.2697,"EPHEMERIS_TYPE":0,"CLASSIFICATION_TYPE":"U","NORAD_CAT_ID":47278,"ELEMENT_SET_NO":999,"REV_AT_EPOCH":23396,"BSTAR":-0.0013410082,"MEAN_MOTION_DOT":-4.7e-6,"MEAN_MOTION_DDOT":0},{"OBJECT_NAME":"ONEWEB-0133","OBJECT_ID":"2020-100X","EPOCH":"2025-10-26T19:03:01.689120","MEAN_MOTION":13.12444636,"ECCENTRICITY":0.00017823,"INCLINATION":87.8959,"RA_OF_ASC_NODE":37.0077,"ARG_OF_PERICENTER":107.4398,"MEAN_ANOMALY":252.6925,"EPHEMERIS_TYPE":0,"CLASSIFICATION_TYPE":"U","NORAD_CAT_ID":47279,"ELEMENT_SET_NO":999,"REV_AT_EPOCH":23412,"BSTAR":0.00096693605,"MEAN_MOTION_DOT":3.61e-6,"MEAN_MOTION_DDOT":0},{"OBJECT_NAME":"ONEWEB-0134","OBJECT_ID":"2020-100Y","EPOCH":"2025-10-26T20:08:36.993120","MEAN_MOTION":13.12442304,"ECCENTRICITY":0.00019799,"INCLINATION":87.897,"RA_OF_ASC_NODE":36.9904,"ARG_OF_PERICENTER":105.6447,"MEAN_ANOMALY":254.4901,"EPHEMERIS_TYPE":0,"CLASSIFICATION_TYPE":"U","NORAD_CAT_ID":47280,"ELEMENT_SET_NO":999,"REV_AT_EPOCH":23410,"BSTAR":-0.0017289558,"MEAN_MOTION_DOT":-6.09e-6,"MEAN_MOTION_DDOT":0},{"OBJECT_NAME":"ONEWEB-0135","OBJECT_ID":"2020-100Z","EPOCH":"2025-10-26T19:26:35.034144","MEAN_MOTION":13.12443483,"ECCENTRICITY":0.0002065,"INCLINATION":87.8971,"RA_OF_ASC_NODE":37.0369,"ARG_OF_PERICENTER":111.2211,"MEAN_ANOMALY":248.9139,"EPHEMERIS_TYPE":0,"CLASSIFICATION_TYPE":"U","NORAD_CAT_ID":47281,"ELEMENT_SET_NO":999,"REV_AT_EPOCH":23412,"BSTAR":0.0010308845,"MEAN_MOTION_DOT":3.84e-6,"MEAN_MOTION_DDOT":0},{"OBJECT_NAME":"ONEWEB-0136","OBJECT_ID":"2020-100AA","EPOCH":"2025-10-26T19:54:35.987616","MEAN_MOTION":13.12443882,"ECCENTRICITY":0.00021843,"INCLINATION":87.8971,"RA_OF_ASC_NODE":37.0014,"ARG_OF_PERICENTER":105.8385,"MEAN_ANOMALY":254.2984,"EPHEMERIS_TYPE":0,"CLASSIFICATION_TYPE":"U","NORAD_CAT_ID":47282,"ELEMENT_SET_NO":999,"REV_AT_EPOCH":23405,"BSTAR":-0.0007325449,"MEAN_MOTION_DOT":-2.51e-6,"MEAN_MOTION_DDOT":0},{"OBJECT_NAME":"ONEWEB-0137","OBJECT_ID":"2020-100AB","EPOCH":"2025-10-26T17:04:06.465216","MEAN_MOTION":13.12443005,"ECCENTRICITY":0.00017448,"INCLINATION":87.897,"RA_OF_ASC_NODE":37.0308,"ARG_OF_PERICENTER":95.2623,"MEAN_ANOMALY":264.8705,"EPHEMERIS_TYPE":0,"CLASSIFICATION_TYPE":"U","NORAD_CAT_ID":47283,"ELEMENT_SET_NO":999,"REV_AT_EPOCH":23394,"BSTAR":0.00056787447,"MEAN_MOTION_DOT":2.17e-6,"MEAN_MOTION_DDOT":0},{"OBJECT_NAME":"ONEWEB-0138","OBJECT_ID":"2020-100AC","EPOCH":"2025-10-26T18:23:30.720192","MEAN_MOTION":13.12443881,"ECCENTRICITY":0.00019232,"INCLINATION":87.8969,"RA_OF_ASC_NODE":37.029,"ARG_OF_PERICENTER":103.8425,"MEAN_ANOMALY":256.2918,"EPHEMERIS_TYPE":0,"CLASSIFICATION_TYPE":"U","NORAD_CAT_ID":47284,"ELEMENT_SET_NO":999,"REV_AT_EPOCH":23403,"BSTAR":-0.0014027826,"MEAN_MOTION_DOT":-4.92e-6,"MEAN_MOTION_DDOT":0},{"OBJECT_NAME":"ONEWEB-0139","OBJECT_ID":"2020-100AD","EPOCH":"2025-10-26T17:30:00.257760","MEAN_MOTION":13.12441008,"ECCENTRICITY":0.00017764,"INCLINATION":87.8966,"RA_OF_ASC_NODE":37.0268,"ARG_OF_PERICENTER":102.1957,"MEAN_ANOMALY":257.937,"EPHEMERIS_TYPE":0,"CLASSIFICATION_TYPE":"U","NORAD_CAT_ID":47285,"ELEMENT_SET_NO":999,"REV_AT_EPOCH":23410,"BSTAR":0.0011818347,"MEAN_MOTION_DOT":4.38e-6,"MEAN_MOTION_DDOT":0},{"OBJECT_NAME":"ONEWEB-0140","OBJECT_ID":"2020-100AE","EPOCH":"2025-10-26T18:14:09.835584","MEAN_MOTION":13.12444111,"ECCENTRICITY":0.0001847,"INCLINATION":87.8968,"RA_OF_ASC_NODE":37.0061,"ARG_OF_PERICENTER":103.4082,"MEAN_ANOMALY":256.7252,"EPHEMERIS_TYPE":0,"CLASSIFICATION_TYPE":"U","NORAD_CAT_ID":47286,"ELEMENT_SET_NO":999,"REV_AT_EPOCH":23407,"BSTAR":-0.0011846087,"MEAN_MOTION_DOT":-4.13e-6,"MEAN_MOTION_DDOT":0},{"OBJECT_NAME":"ONEWEB-0141","OBJECT_ID":"2020-100AF","EPOCH":"2025-10-26T19:19:23.747808","MEAN_MOTION":13.12441211,"ECCENTRICITY":0.00017099,"INCLINATION":87.8962,"RA_OF_ASC_NODE":37.0097,"ARG_OF_PERICENTER":90.6683,"MEAN_ANOMALY":269.4641,"EPHEMERIS_TYPE":0,"CLASSIFICATION_TYPE":"U","NORAD_CAT_ID":47287,"ELEMENT_SET_NO":999,"REV_AT_EPOCH":23406,"BSTAR":0.0010598102,"MEAN_MOTION_DOT":3.94e-6,"MEAN_MOTION_DDOT":0},{"OBJECT_NAME":"ONEWEB-0142","OBJECT_ID":"2020-100AG","EPOCH":"2025-10-26T19:03:24.447744","MEAN_MOTION":13.12445959,"ECCENTRICITY":0.0001898,"INCLINATION":87.8971,"RA_OF_ASC_NODE":37.0319,"ARG_OF_PERICENTER":90.0897,"MEAN_ANOMALY":270.0449,"EPHEMERIS_TYPE":0,"CLASSIFICATION_TYPE":"U","NORAD_CAT_ID":47288,"ELEMENT_SET_NO":999,"REV_AT_EPOCH":23405,"BSTAR":0.0012874173,"MEAN_MOTION_DOT":4.76e-6,"MEAN_MOTION_DDOT":0},{"OBJECT_NAME":"ONEWEB-0143","OBJECT_ID":"2020-100AH","EPOCH":"2025-10-26T19:17:14.548704","MEAN_MOTION":13.12443592,"ECCENTRICITY":0.000173,"INCLINATION":87.897,"RA_OF_ASC_NODE":37.0262,"ARG_OF_PERICENTER":102.5684,"MEAN_ANOMALY":257.5638,"EPHEMERIS_TYPE":0,"CLASSIFICATION_TYPE":"U","NORAD_CAT_ID":47289,"ELEMENT_SET_NO":999,"REV_AT_EPOCH":23403,"BSTAR":0.0011968346,"MEAN_MOTION_DOT":4.43e-6,"MEAN_MOTION_DDOT":0},{"OBJECT_NAME":"ONEWEB-0144","OBJECT_ID":"2020-100AJ","EPOCH":"2025-10-26T18:37:31.652256","MEAN_MOTION":13.12449026,"ECCENTRICITY":0.00020642,"INCLINATION":87.896,"RA_OF_ASC_NODE":37.003,"ARG_OF_PERICENTER":99.1391,"MEAN_ANOMALY":260.9971,"EPHEMERIS_TYPE":0,"CLASSIFICATION_TYPE":"U","NORAD_CAT_ID":47290,"ELEMENT_SET_NO":999,"REV_AT_EPOCH":23395,"BSTAR":-0.0005180157,"MEAN_MOTION_DOT":-1.74e-6,"MEAN_MOTION_DDOT":0},{"OBJECT_NAME":"ONEWEB-0145","OBJECT_ID":"2020-100AK","EPOCH":"2025-10-26T19:45:15.891840","MEAN_MOTION":13.12442724,"ECCENTRICITY":0.00017888,"INCLINATION":87.8971,"RA_OF_ASC_NODE":37.0288,"ARG_OF_PERICENTER":101.116,"MEAN_ANOMALY":259.017,"EPHEMERIS_TYPE":0,"CLASSIFICATION_TYPE":"U","NORAD_CAT_ID":47291,"ELEMENT_SET_NO":999,"REV_AT_EPOCH":23415,"BSTAR":-0.00010969413,"MEAN_MOTION_DOT":-2.7e-7,"MEAN_MOTION_DDOT":0},{"OBJECT_NAME":"ONEWEB-0146","OBJECT_ID":"2020-100AL","EPOCH":"2025-10-26T19:40:35.495328","MEAN_MOTION":13.12443151,"ECCENTRICITY":0.00014741,"INCLINATION":87.8971,"RA_OF_ASC_NODE":37.0162,"ARG_OF_PERICENTER":110.7193,"MEAN_ANOMALY":249.4094,"EPHEMERIS_TYPE":0,"CLASSIFICATION_TYPE":"U","NORAD_CAT_ID":47292,"ELEMENT_SET_NO":999,"REV_AT_EPOCH":23406,"BSTAR":0.00025243758,"MEAN_MOTION_DOT":1.04e-6,"MEAN_MOTION_DDOT":0},{"OBJECT_NAME":"ONEWEB-0147","OBJECT_ID":"2020-100AM","EPOCH":"2025-10-26T17:01:46.265664","MEAN_MOTION":13.12443313,"ECCENTRICITY":0.00019857,"INCLINATION":87.8969,"RA_OF_ASC_NODE":37.0159,"ARG_OF_PERICENTER":106.8,"MEAN_ANOMALY":253.3347,"EPHEMERIS_TYPE":0,"CLASSIFICATION_TYPE":"U","NORAD_CAT_ID":47293,"ELEMENT_SET_NO":999,"REV_AT_EPOCH":23394,"BSTAR":0.00036895045,"MEAN_MOTION_DOT":1.45e-6,"MEAN_MOTION_DDOT":0},{"OBJECT_NAME":"ONEWEB-0115","OBJECT_ID":"2021-025A","EPOCH":"2025-10-26T22:04:39.793728","MEAN_MOTION":13.13469732,"ECCENTRICITY":0.00017957,"INCLINATION":87.9037,"RA_OF_ASC_NODE":6.5723,"ARG_OF_PERICENTER":101.0032,"MEAN_ANOMALY":259.13,"EPHEMERIS_TYPE":0,"CLASSIFICATION_TYPE":"U","NORAD_CAT_ID":48042,"ELEMENT_SET_NO":999,"REV_AT_EPOCH":22297,"BSTAR":-0.0012141378,"MEAN_MOTION_DOT":-4.31e-6,"MEAN_MOTION_DDOT":0},{"OBJECT_NAME":"ONEWEB-0152","OBJECT_ID":"2021-025B","EPOCH":"2025-10-26T15:05:24.144288","MEAN_MOTION":13.13471483,"ECCENTRICITY":0.00017668,"INCLINATION":87.9029,"RA_OF_ASC_NODE":6.6415,"ARG_OF_PERICENTER":104.2484,"MEAN_ANOMALY":255.8842,"EPHEMERIS_TYPE":0,"CLASSIFICATION_TYPE":"U","NORAD_CAT_ID":48043,"ELEMENT_SET_NO":999,"REV_AT_EPOCH":22289,"BSTAR":0.00044907523,"MEAN_MOTION_DOT":1.77e-6,"MEAN_MOTION_DDOT":0},{"OBJECT_NAME":"ONEWEB-0153","OBJECT_ID":"2021-025C","EPOCH":"2025-10-26T21:52:29.334432","MEAN_MOTION":13.13471161,"ECCENTRICITY":0.00018232,"INCLINATION":87.9034,"RA_OF_ASC_NODE":6.5877,"ARG_OF_PERICENTER":98.1505,"MEAN_ANOMALY":261.9831,"EPHEMERIS_TYPE":0,"CLASSIFICATION_TYPE":"U","NORAD_CAT_ID":48044,"ELEMENT_SET_NO":999,"REV_AT_EPOCH":22292,"BSTAR":-0.0007280834,"MEAN_MOTION_DOT":-2.53e-6,"MEAN_MOTION_DDOT":0},{"OBJECT_NAME":"ONEWEB-0154","OBJECT_ID":"2021-025D","EPOCH":"2025-10-26T21:47:36.090240","MEAN_MOTION":13.13468339,"ECCENTRICITY":0.00018749,"INCLINATION":87.9039,"RA_OF_ASC_NODE":6.5847,"ARG_OF_PERICENTER":101.9255,"MEAN_ANOMALY":258.2084,"EPHEMERIS_TYPE":0,"CLASSIFICATION_TYPE":"U","NORAD_CAT_ID":48045,"ELEMENT_SET_NO":999,"REV_AT_EPOCH":22288,"BSTAR":-0.00075375327,"MEAN_MOTION_DOT":-2.63e-6,"MEAN_MOTION_DDOT":0},{"OBJECT_NAME":"ONEWEB-0116","OBJECT_ID":"2021-025E","EPOCH":"2025-10-26T22:43:40.840608","MEAN_MOTION":13.13472246,"ECCENTRICITY":0.00017332,"INCLINATION":87.9039,"RA_OF_ASC_NODE":6.5606,"ARG_OF_PERICENTER":104.1851,"MEAN_ANOMALY":255.9471,"EPHEMERIS_TYPE":0,"CLASSIFICATION_TYPE":"U","NORAD_CAT_ID":48046,"ELEMENT_SET_NO":999,"REV_AT_EPOCH":22303,"BSTAR":0.0012786642,"MEAN_MOTION_DOT":4.8e-6,"MEAN_MOTION_DDOT":0},{"OBJECT_NAME":"ONEWEB-0150","OBJECT_ID":"2021-025F","EPOCH":"2025-10-26T22:09:33.086304","MEAN_MOTION":13.13471022,"ECCENTRICITY":0.00017283,"INCLINATION":87.904,"RA_OF_ASC_NODE":6.56,"ARG_OF_PERICENTER":94.1307,"MEAN_ANOMALY":266.0019,"EPHEMERIS_TYPE":0,"CLASSIFICATION_TYPE":"U","NORAD_CAT_ID":48047,"ELEMENT_SET_NO":999,"REV_AT_EPOCH":22292,"BSTAR":-0.00050813128,"MEAN_MOTION_DOT":-1.73e-6,"MEAN_MOTION_DDOT":0},{"OBJECT_NAME":"ONEWEB-0107","OBJECT_ID":"2021-025G","EPOCH":"2025-10-26T22:12:00.134784","MEAN_MOTION":13.13468772,"ECCENTRICITY":0.00020238,"INCLINATION":87.9039,"RA_OF_ASC_NODE":6.5568,"ARG_OF_PERICENTER":94.8359,"MEAN_ANOMALY":265.3002,"EPHEMERIS_TYPE":0,"CLASSIFICATION_TYPE":"U","NORAD_CAT_ID":48048,"ELEMENT_SET_NO":999,"REV_AT_EPOCH":22290,"BSTAR":-0.00035939554,"MEAN_MOTION_DOT":-1.18e-6,"MEAN_MOTION_DDOT":0}]
